[{"OBJECT_NAME":"STARLINK-32701","OBJECT_ID":"2025-003Z","EPOCH":"2026-03-09T23:10:54.661152","MEAN_MOTION":15.27600706,"ECCENTRICITY":0.00032858,"INCLINATION":42.9999,"RA_OF_ASC_NODE":287.4223,"ARG_OF_PERICENTER":242.1774,"MEAN_ANOMALY":117.8745,"EPHEMERIS_TYPE":0,"CLASSIFICATION_TYPE":"U","NORAD_CAT_ID":62510,"ELEMENT_SET_NO":999,"REV_AT_EPOCH":6659,"BSTAR":0.0014399808,"MEAN_MOTION_DOT":0.00039605,"MEAN_MOTION_DDOT":0},{"OBJECT_NAME":"KUIPER-00204","OBJECT_ID":"2025-301N","EPOCH":"2026-03-09T09:32:32.981280","MEAN_MOTION":15.260884,"ECCENTRICITY":0.00030716,"INCLINATION":51.887,"RA_OF_ASC_NODE":71.6415,"ARG_OF_PERICENTER":354.8934,"MEAN_ANOMALY":5.2016,"EPHEMERIS_TYPE":0,"CLASSIFICATION_TYPE":"U","NORAD_CAT_ID":67145,"ELEMENT_SET_NO":999,"REV_AT_EPOCH":1373,"BSTAR":0.00079568218,"MEAN_MOTION_DOT":0.00020516,"MEAN_MOTION_DDOT":0}]
